QIANFAN-73              
1 63159U 25046A   25364.82521826  .00000225  00000+0  32937-3 0  9990
2 63159  88.9777 318.1515 0016991  72.3800 287.9205 13.50982522 49858
QIANFAN-74              
1 63160U 25046B   25364.80862718  .00000235  00000+0  34602-3 0  9990
2 63160  88.9778 318.0421 0001989  71.8180 288.3188 13.50979507 49913
QIANFAN-75              
1 63161U 25046C   25364.86993691  .00000278  00000+0  41137-3 0  9990
2 63161  88.9779 318.2696 0018154  74.7383 285.5774 13.50985357 49796
QIANFAN-76              
1 63162U 25046D   25364.86658557  .00000235  00000+0  34470-3 0  9995
2 63162  88.9778 318.2505 0015697  75.2861 285.0029 13.50984886 49807
QIANFAN-77              
1 63163U 25046E   25364.81894444  .00000701  00000+0  50102-3 0  9996
2 63163  88.9779 316.1142 0016281  30.7741 329.4387 13.96104641 50979
QIANFAN-78              
1 63164U 25046F   25364.83341884  .00000247  00000+0  36384-3 0  9995
2 63164  88.9777 318.1176 0017077  77.3381 282.9678 13.50983207 49874
QIANFAN-79              
1 63165U 25046G   25364.86205647  .00000265  00000+0  39111-3 0  9996
2 63165  88.9781 318.2229 0016758  75.7828 284.5183 13.50985101 49822
QIANFAN-80              
1 63166U 25046H   25364.80453913  .00000259  00000+0  38242-3 0  9999
2 63166  88.9779 317.9353 0015731  79.6046 280.6878 13.50983093 49971
